[{"OBJECT_NAME":"MESON-1","OBJECT_ID":"2024-043AK","EPOCH":"2026-03-09T21:36:16.481664","MEAN_MOTION":15.29893494,"ECCENTRICITY":0.00095452,"INCLINATION":97.5469,"RA_OF_ASC_NODE":205.2839,"ARG_OF_PERICENTER":227.1432,"MEAN_ANOMALY":132.9007,"EPHEMERIS_TYPE":0,"CLASSIFICATION_TYPE":"U","NORAD_CAT_ID":59131,"ELEMENT_SET_NO":999,"REV_AT_EPOCH":11189,"BSTAR":0.0002974823,"MEAN_MOTION_DOT":8.544e-5,"MEAN_MOTION_DDOT":0},{"OBJECT_NAME":"STARLINK-31785","OBJECT_ID":"2024-118U","EPOCH":"2026-03-09T22:13:33.287808","MEAN_MOTION":15.30165683,"ECCENTRICITY":7.758e-5,"INCLINATION":53.1605,"RA_OF_ASC_NODE":25.5486,"ARG_OF_PERICENTER":114.8421,"MEAN_ANOMALY":245.266,"EPHEMERIS_TYPE":0,"CLASSIFICATION_TYPE":"U","NORAD_CAT_ID":60131,"ELEMENT_SET_NO":999,"REV_AT_EPOCH":9573,"BSTAR":-4.4626514e-5,"MEAN_MOTION_DOT":-1.679e-5,"MEAN_MOTION_DDOT":0}]
